{
"type": "FeatureCollection",
"name": "intervention_simulation",
"crs": { "type": "name", "properties": { "name": "urn:ogc:def:crs:OGC:1.3:CRS84" } },
"features": [
{ "type": "Feature", "properties": { "edge_id": "E01", "u": 101, "v": 102, "hour": 9, "distance_m": 200, "shade_frac": 0.2, "road_class": "residential", "pollution_proxy": 0.1, "rider_heat_dose": 0.48, "rider_pollution_dose": 0.06, "rider_risk": 0.354, "vendor_heat_dose": 1.44, "vendor_pollution_dose": 0.12, "vendor_risk": 1.044, "child_heat_dose": 1.2, "child_pollution_dose": 0.12, "child_risk": 0.876, "future_shade_frac": 0.2, "future_pollution_proxy": 0.1, "intervention_notes": "", "rider_future_heat_dose": 0.48, "rider_future_pollution_dose": 0.06, "rider_future_risk": 0.354, "vendor_future_heat_dose": 1.44, "vendor_future_pollution_dose": 0.12, "vendor_future_risk": 1.044, "child_future_heat_dose": 1.2, "child_future_pollution_dose": 0.12, "child_future_risk": 0.876 }, "geometry": { "type": "LineString", "coordinates": [ [ 77.59, 12.97 ], [ 77.592, 12.97 ] ] } },
{ "type": "Feature", "properties": { "edge_id": "E02", "u": 102, "v": 103, "hour": 9, "distance_m": 200, "shade_frac": 0.3, "road_class": "primary", "pollution_proxy": 0.4, "rider_heat_dose": 0.42, "rider_pollution_dose": 0.24, "rider_risk": 0.366, "vendor_heat_dose": 1.26, "vendor_pollution_dose": 0.48, "vendor_risk": 1.026, "child_heat_dose": 1.05, "child_pollution_dose": 0.48, "child_risk": 0.879, "future_shade_frac": 0.6, "future_pollution_proxy": 0.25, "intervention_notes": "green_corridor;", "rider_future_heat_dose": 0.24, "rider_future_pollution_dose": 0.15, "rider_future_risk": 0.213, "vendor_future_heat_dose": 0.72, "vendor_future_pollution_dose": 0.3, "vendor_future_risk": 0.594, "child_future_heat_dose": 0.6, "child_future_pollution_dose": 0.3, "child_future_risk": 0.51 }, "geometry": { "type": "LineString", "coordinates": [ [ 77.592, 12.97 ], [ 77.594, 12.97 ] ] } },
{ "type": "Feature", "properties": { "edge_id": "E03", "u": 101, "v": 104, "hour": 9, "distance_m": 250, "shade_frac": 0.8, "road_class": "residential", "pollution_proxy": 0.05, "rider_heat_dose": 0.12, "rider_pollution_dose": 0.03, "rider_risk": 0.093, "vendor_heat_dose": 0.36, "vendor_pollution_dose": 0.06, "vendor_risk": 0.27, "child_heat_dose": 0.3, "child_pollution_dose": 0.06, "child_risk": 0.228, "future_shade_frac": 1.0, "future_pollution_proxy": 0.05, "intervention_notes": "cooling_stop;", "rider_future_heat_dose": 0.0, "rider_future_pollution_dose": 0.03, "rider_future_risk": 0.009, "vendor_future_heat_dose": 0.0, "vendor_future_pollution_dose": 0.06, "vendor_future_risk": 0.018, "child_future_heat_dose": 0.0, "child_future_pollution_dose": 0.06, "child_future_risk": 0.018 }, "geometry": { "type": "LineString", "coordinates": [ [ 77.59, 12.97 ], [ 77.59, 12.9725 ] ] } },
{ "type": "Feature", "properties": { "edge_id": "E04", "u": 104, "v": 105, "hour": 9, "distance_m": 250, "shade_frac": 0.85, "road_class": "residential", "pollution_proxy": 0.05, "rider_heat_dose": 0.09, "rider_pollution_dose": 0.03, "rider_risk": 0.072, "vendor_heat_dose": 0.27, "vendor_pollution_dose": 0.06, "vendor_risk": 0.207, "child_heat_dose": 0.225, "child_pollution_dose": 0.06, "child_risk": 0.1755, "future_shade_frac": 1.0, "future_pollution_proxy": 0.0, "intervention_notes": "cooling_stop;trees;", "rider_future_heat_dose": 0.0, "rider_future_pollution_dose": 0.0, "rider_future_risk": 0.0, "vendor_future_heat_dose": 0.0, "vendor_future_pollution_dose": 0.0, "vendor_future_risk": 0.0, "child_future_heat_dose": 0.0, "child_future_pollution_dose": 0.0, "child_future_risk": 0.0 }, "geometry": { "type": "LineString", "coordinates": [ [ 77.59, 12.9725 ], [ 77.5925, 12.9725 ] ] } },
{ "type": "Feature", "properties": { "edge_id": "E05", "u": 105, "v": 106, "hour": 9, "distance_m": 250, "shade_frac": 0.8, "road_class": "residential", "pollution_proxy": 0.05, "rider_heat_dose": 0.12, "rider_pollution_dose": 0.03, "rider_risk": 0.093, "vendor_heat_dose": 0.36, "vendor_pollution_dose": 0.06, "vendor_risk": 0.27, "child_heat_dose": 0.3, "child_pollution_dose": 0.06, "child_risk": 0.228, "future_shade_frac": 0.8, "future_pollution_proxy": 0.05, "intervention_notes": "", "rider_future_heat_dose": 0.12, "rider_future_pollution_dose": 0.03, "rider_future_risk": 0.093, "vendor_future_heat_dose": 0.36, "vendor_future_pollution_dose": 0.06, "vendor_future_risk": 0.27, "child_future_heat_dose": 0.3, "child_future_pollution_dose": 0.06, "child_future_risk": 0.228 }, "geometry": { "type": "LineString", "coordinates": [ [ 77.5925, 12.9725 ], [ 77.595, 12.9725 ] ] } },
{ "type": "Feature", "properties": { "edge_id": "E06", "u": 103, "v": 106, "hour": 9, "distance_m": 250, "shade_frac": 0.2, "road_class": "primary", "pollution_proxy": 0.45, "rider_heat_dose": 0.48, "rider_pollution_dose": 0.27, "rider_risk": 0.417, "vendor_heat_dose": 1.44, "vendor_pollution_dose": 0.54, "vendor_risk": 1.17, "child_heat_dose": 1.2, "child_pollution_dose": 0.54, "child_risk": 1.002, "future_shade_frac": 0.5, "future_pollution_proxy": 0.3, "intervention_notes": "green_corridor;", "rider_future_heat_dose": 0.3, "rider_future_pollution_dose": 0.18, "rider_future_risk": 0.264, "vendor_future_heat_dose": 0.9, "vendor_future_pollution_dose": 0.36, "vendor_future_risk": 0.738, "child_future_heat_dose": 0.75, "child_future_pollution_dose": 0.36, "child_future_risk": 0.633 }, "geometry": { "type": "LineString", "coordinates": [ [ 77.594, 12.97 ], [ 77.595, 12.9725 ] ] } },
{ "type": "Feature", "properties": { "edge_id": "E01", "u": 101, "v": 102, "hour": 11, "distance_m": 200, "shade_frac": 0.2, "road_class": "residential", "pollution_proxy": 0.1, "rider_heat_dose": 0.48, "rider_pollution_dose": 0.06, "rider_risk": 0.354, "vendor_heat_dose": 1.44, "vendor_pollution_dose": 0.12, "vendor_risk": 1.044, "child_heat_dose": 1.2, "child_pollution_dose": 0.12, "child_risk": 0.876, "future_shade_frac": 0.2, "future_pollution_proxy": 0.1, "intervention_notes": "", "rider_future_heat_dose": 0.48, "rider_future_pollution_dose": 0.06, "rider_future_risk": 0.354, "vendor_future_heat_dose": 1.44, "vendor_future_pollution_dose": 0.12, "vendor_future_risk": 1.044, "child_future_heat_dose": 1.2, "child_future_pollution_dose": 0.12, "child_future_risk": 0.876 }, "geometry": { "type": "LineString", "coordinates": [ [ 77.59, 12.97 ], [ 77.592, 12.97 ] ] } },
{ "type": "Feature", "properties": { "edge_id": "E02", "u": 102, "v": 103, "hour": 11, "distance_m": 200, "shade_frac": 0.3, "road_class": "primary", "pollution_proxy": 0.4, "rider_heat_dose": 0.42, "rider_pollution_dose": 0.24, "rider_risk": 0.366, "vendor_heat_dose": 1.26, "vendor_pollution_dose": 0.48, "vendor_risk": 1.026, "child_heat_dose": 1.05, "child_pollution_dose": 0.48, "child_risk": 0.879, "future_shade_frac": 0.6, "future_pollution_proxy": 0.25, "intervention_notes": "green_corridor;", "rider_future_heat_dose": 0.24, "rider_future_pollution_dose": 0.15, "rider_future_risk": 0.213, "vendor_future_heat_dose": 0.72, "vendor_future_pollution_dose": 0.3, "vendor_future_risk": 0.594, "child_future_heat_dose": 0.6, "child_future_pollution_dose": 0.3, "child_future_risk": 0.51 }, "geometry": { "type": "LineString", "coordinates": [ [ 77.592, 12.97 ], [ 77.594, 12.97 ] ] } },
{ "type": "Feature", "properties": { "edge_id": "E03", "u": 101, "v": 104, "hour": 11, "distance_m": 250, "shade_frac": 0.8, "road_class": "residential", "pollution_proxy": 0.05, "rider_heat_dose": 0.12, "rider_pollution_dose": 0.03, "rider_risk": 0.093, "vendor_heat_dose": 0.36, "vendor_pollution_dose": 0.06, "vendor_risk": 0.27, "child_heat_dose": 0.3, "child_pollution_dose": 0.06, "child_risk": 0.228, "future_shade_frac": 1.0, "future_pollution_proxy": 0.05, "intervention_notes": "cooling_stop;", "rider_future_heat_dose": 0.0, "rider_future_pollution_dose": 0.03, "rider_future_risk": 0.009, "vendor_future_heat_dose": 0.0, "vendor_future_pollution_dose": 0.06, "vendor_future_risk": 0.018, "child_future_heat_dose": 0.0, "child_future_pollution_dose": 0.06, "child_future_risk": 0.018 }, "geometry": { "type": "LineString", "coordinates": [ [ 77.59, 12.97 ], [ 77.59, 12.9725 ] ] } },
{ "type": "Feature", "properties": { "edge_id": "E04", "u": 104, "v": 105, "hour": 11, "distance_m": 250, "shade_frac": 0.85, "road_class": "residential", "pollution_proxy": 0.05, "rider_heat_dose": 0.09, "rider_pollution_dose": 0.03, "rider_risk": 0.072, "vendor_heat_dose": 0.27, "vendor_pollution_dose": 0.06, "vendor_risk": 0.207, "child_heat_dose": 0.225, "child_pollution_dose": 0.06, "child_risk": 0.1755, "future_shade_frac": 1.0, "future_pollution_proxy": 0.0, "intervention_notes": "cooling_stop;trees;", "rider_future_heat_dose": 0.0, "rider_future_pollution_dose": 0.0, "rider_future_risk": 0.0, "vendor_future_heat_dose": 0.0, "vendor_future_pollution_dose": 0.0, "vendor_future_risk": 0.0, "child_future_heat_dose": 0.0, "child_future_pollution_dose": 0.0, "child_future_risk": 0.0 }, "geometry": { "type": "LineString", "coordinates": [ [ 77.59, 12.9725 ], [ 77.5925, 12.9725 ] ] } },
{ "type": "Feature", "properties": { "edge_id": "E05", "u": 105, "v": 106, "hour": 11, "distance_m": 250, "shade_frac": 0.8, "road_class": "residential", "pollution_proxy": 0.05, "rider_heat_dose": 0.12, "rider_pollution_dose": 0.03, "rider_risk": 0.093, "vendor_heat_dose": 0.36, "vendor_pollution_dose": 0.06, "vendor_risk": 0.27, "child_heat_dose": 0.3, "child_pollution_dose": 0.06, "child_risk": 0.228, "future_shade_frac": 0.8, "future_pollution_proxy": 0.05, "intervention_notes": "", "rider_future_heat_dose": 0.12, "rider_future_pollution_dose": 0.03, "rider_future_risk": 0.093, "vendor_future_heat_dose": 0.36, "vendor_future_pollution_dose": 0.06, "vendor_future_risk": 0.27, "child_future_heat_dose": 0.3, "child_future_pollution_dose": 0.06, "child_future_risk": 0.228 }, "geometry": { "type": "LineString", "coordinates": [ [ 77.5925, 12.9725 ], [ 77.595, 12.9725 ] ] } },
{ "type": "Feature", "properties": { "edge_id": "E06", "u": 103, "v": 106, "hour": 11, "distance_m": 250, "shade_frac": 0.2, "road_class": "primary", "pollution_proxy": 0.45, "rider_heat_dose": 0.48, "rider_pollution_dose": 0.27, "rider_risk": 0.417, "vendor_heat_dose": 1.44, "vendor_pollution_dose": 0.54, "vendor_risk": 1.17, "child_heat_dose": 1.2, "child_pollution_dose": 0.54, "child_risk": 1.002, "future_shade_frac": 0.5, "future_pollution_proxy": 0.3, "intervention_notes": "green_corridor;", "rider_future_heat_dose": 0.3, "rider_future_pollution_dose": 0.18, "rider_future_risk": 0.264, "vendor_future_heat_dose": 0.9, "vendor_future_pollution_dose": 0.36, "vendor_future_risk": 0.738, "child_future_heat_dose": 0.75, "child_future_pollution_dose": 0.36, "child_future_risk": 0.633 }, "geometry": { "type": "LineString", "coordinates": [ [ 77.594, 12.97 ], [ 77.595, 12.9725 ] ] } },
{ "type": "Feature", "properties": { "edge_id": "E01", "u": 101, "v": 102, "hour": 13, "distance_m": 200, "shade_frac": 0.2, "road_class": "residential", "pollution_proxy": 0.1, "rider_heat_dose": 0.48, "rider_pollution_dose": 0.06, "rider_risk": 0.354, "vendor_heat_dose": 1.44, "vendor_pollution_dose": 0.12, "vendor_risk": 1.044, "child_heat_dose": 1.2, "child_pollution_dose": 0.12, "child_risk": 0.876, "future_shade_frac": 0.2, "future_pollution_proxy": 0.1, "intervention_notes": "", "rider_future_heat_dose": 0.48, "rider_future_pollution_dose": 0.06, "rider_future_risk": 0.354, "vendor_future_heat_dose": 1.44, "vendor_future_pollution_dose": 0.12, "vendor_future_risk": 1.044, "child_future_heat_dose": 1.2, "child_future_pollution_dose": 0.12, "child_future_risk": 0.876 }, "geometry": { "type": "LineString", "coordinates": [ [ 77.59, 12.97 ], [ 77.592, 12.97 ] ] } },
{ "type": "Feature", "properties": { "edge_id": "E02", "u": 102, "v": 103, "hour": 13, "distance_m": 200, "shade_frac": 0.3, "road_class": "primary", "pollution_proxy": 0.4, "rider_heat_dose": 0.42, "rider_pollution_dose": 0.24, "rider_risk": 0.366, "vendor_heat_dose": 1.26, "vendor_pollution_dose": 0.48, "vendor_risk": 1.026, "child_heat_dose": 1.05, "child_pollution_dose": 0.48, "child_risk": 0.879, "future_shade_frac": 0.6, "future_pollution_proxy": 0.25, "intervention_notes": "green_corridor;", "rider_future_heat_dose": 0.24, "rider_future_pollution_dose": 0.15, "rider_future_risk": 0.213, "vendor_future_heat_dose": 0.72, "vendor_future_pollution_dose": 0.3, "vendor_future_risk": 0.594, "child_future_heat_dose": 0.6, "child_future_pollution_dose": 0.3, "child_future_risk": 0.51 }, "geometry": { "type": "LineString", "coordinates": [ [ 77.592, 12.97 ], [ 77.594, 12.97 ] ] } },
{ "type": "Feature", "properties": { "edge_id": "E03", "u": 101, "v": 104, "hour": 13, "distance_m": 250, "shade_frac": 0.8, "road_class": "residential", "pollution_proxy": 0.05, "rider_heat_dose": 0.12, "rider_pollution_dose": 0.03, "rider_risk": 0.093, "vendor_heat_dose": 0.36, "vendor_pollution_dose": 0.06, "vendor_risk": 0.27, "child_heat_dose": 0.3, "child_pollution_dose": 0.06, "child_risk": 0.228, "future_shade_frac": 1.0, "future_pollution_proxy": 0.05, "intervention_notes": "cooling_stop;", "rider_future_heat_dose": 0.0, "rider_future_pollution_dose": 0.03, "rider_future_risk": 0.009, "vendor_future_heat_dose": 0.0, "vendor_future_pollution_dose": 0.06, "vendor_future_risk": 0.018, "child_future_heat_dose": 0.0, "child_future_pollution_dose": 0.06, "child_future_risk": 0.018 }, "geometry": { "type": "LineString", "coordinates": [ [ 77.59, 12.97 ], [ 77.59, 12.9725 ] ] } },
{ "type": "Feature", "properties": { "edge_id": "E04", "u": 104, "v": 105, "hour": 13, "distance_m": 250, "shade_frac": 0.85, "road_class": "residential", "pollution_proxy": 0.05, "rider_heat_dose": 0.09, "rider_pollution_dose": 0.03, "rider_risk": 0.072, "vendor_heat_dose": 0.27, "vendor_pollution_dose": 0.06, "vendor_risk": 0.207, "child_heat_dose": 0.225, "child_pollution_dose": 0.06, "child_risk": 0.1755, "future_shade_frac": 1.0, "future_pollution_proxy": 0.0, "intervention_notes": "cooling_stop;trees;", "rider_future_heat_dose": 0.0, "rider_future_pollution_dose": 0.0, "rider_future_risk": 0.0, "vendor_future_heat_dose": 0.0, "vendor_future_pollution_dose": 0.0, "vendor_future_risk": 0.0, "child_future_heat_dose": 0.0, "child_future_pollution_dose": 0.0, "child_future_risk": 0.0 }, "geometry": { "type": "LineString", "coordinates": [ [ 77.59, 12.9725 ], [ 77.5925, 12.9725 ] ] } },
{ "type": "Feature", "properties": { "edge_id": "E05", "u": 105, "v": 106, "hour": 13, "distance_m": 250, "shade_frac": 0.8, "road_class": "residential", "pollution_proxy": 0.05, "rider_heat_dose": 0.12, "rider_pollution_dose": 0.03, "rider_risk": 0.093, "vendor_heat_dose": 0.36, "vendor_pollution_dose": 0.06, "vendor_risk": 0.27, "child_heat_dose": 0.3, "child_pollution_dose": 0.06, "child_risk": 0.228, "future_shade_frac": 0.8, "future_pollution_proxy": 0.05, "intervention_notes": "", "rider_future_heat_dose": 0.12, "rider_future_pollution_dose": 0.03, "rider_future_risk": 0.093, "vendor_future_heat_dose": 0.36, "vendor_future_pollution_dose": 0.06, "vendor_future_risk": 0.27, "child_future_heat_dose": 0.3, "child_future_pollution_dose": 0.06, "child_future_risk": 0.228 }, "geometry": { "type": "LineString", "coordinates": [ [ 77.5925, 12.9725 ], [ 77.595, 12.9725 ] ] } },
{ "type": "Feature", "properties": { "edge_id": "E06", "u": 103, "v": 106, "hour": 13, "distance_m": 250, "shade_frac": 0.2, "road_class": "primary", "pollution_proxy": 0.45, "rider_heat_dose": 0.48, "rider_pollution_dose": 0.27, "rider_risk": 0.417, "vendor_heat_dose": 1.44, "vendor_pollution_dose": 0.54, "vendor_risk": 1.17, "child_heat_dose": 1.2, "child_pollution_dose": 0.54, "child_risk": 1.002, "future_shade_frac": 0.5, "future_pollution_proxy": 0.3, "intervention_notes": "green_corridor;", "rider_future_heat_dose": 0.3, "rider_future_pollution_dose": 0.18, "rider_future_risk": 0.264, "vendor_future_heat_dose": 0.9, "vendor_future_pollution_dose": 0.36, "vendor_future_risk": 0.738, "child_future_heat_dose": 0.75, "child_future_pollution_dose": 0.36, "child_future_risk": 0.633 }, "geometry": { "type": "LineString", "coordinates": [ [ 77.594, 12.97 ], [ 77.595, 12.9725 ] ] } },
{ "type": "Feature", "properties": { "edge_id": "E01", "u": 101, "v": 102, "hour": 15, "distance_m": 200, "shade_frac": 0.2, "road_class": "residential", "pollution_proxy": 0.1, "rider_heat_dose": 0.48, "rider_pollution_dose": 0.06, "rider_risk": 0.354, "vendor_heat_dose": 1.44, "vendor_pollution_dose": 0.12, "vendor_risk": 1.044, "child_heat_dose": 1.2, "child_pollution_dose": 0.12, "child_risk": 0.876, "future_shade_frac": 0.2, "future_pollution_proxy": 0.1, "intervention_notes": "", "rider_future_heat_dose": 0.48, "rider_future_pollution_dose": 0.06, "rider_future_risk": 0.354, "vendor_future_heat_dose": 1.44, "vendor_future_pollution_dose": 0.12, "vendor_future_risk": 1.044, "child_future_heat_dose": 1.2, "child_future_pollution_dose": 0.12, "child_future_risk": 0.876 }, "geometry": { "type": "LineString", "coordinates": [ [ 77.59, 12.97 ], [ 77.592, 12.97 ] ] } },
{ "type": "Feature", "properties": { "edge_id": "E02", "u": 102, "v": 103, "hour": 15, "distance_m": 200, "shade_frac": 0.3, "road_class": "primary", "pollution_proxy": 0.4, "rider_heat_dose": 0.42, "rider_pollution_dose": 0.24, "rider_risk": 0.366, "vendor_heat_dose": 1.26, "vendor_pollution_dose": 0.48, "vendor_risk": 1.026, "child_heat_dose": 1.05, "child_pollution_dose": 0.48, "child_risk": 0.879, "future_shade_frac": 0.6, "future_pollution_proxy": 0.25, "intervention_notes": "green_corridor;", "rider_future_heat_dose": 0.24, "rider_future_pollution_dose": 0.15, "rider_future_risk": 0.213, "vendor_future_heat_dose": 0.72, "vendor_future_pollution_dose": 0.3, "vendor_future_risk": 0.594, "child_future_heat_dose": 0.6, "child_future_pollution_dose": 0.3, "child_future_risk": 0.51 }, "geometry": { "type": "LineString", "coordinates": [ [ 77.592, 12.97 ], [ 77.594, 12.97 ] ] } },
{ "type": "Feature", "properties": { "edge_id": "E03", "u": 101, "v": 104, "hour": 15, "distance_m": 250, "shade_frac": 0.8, "road_class": "residential", "pollution_proxy": 0.05, "rider_heat_dose": 0.12, "rider_pollution_dose": 0.03, "rider_risk": 0.093, "vendor_heat_dose": 0.36, "vendor_pollution_dose": 0.06, "vendor_risk": 0.27, "child_heat_dose": 0.3, "child_pollution_dose": 0.06, "child_risk": 0.228, "future_shade_frac": 1.0, "future_pollution_proxy": 0.05, "intervention_notes": "cooling_stop;", "rider_future_heat_dose": 0.0, "rider_future_pollution_dose": 0.03, "rider_future_risk": 0.009, "vendor_future_heat_dose": 0.0, "vendor_future_pollution_dose": 0.06, "vendor_future_risk": 0.018, "child_future_heat_dose": 0.0, "child_future_pollution_dose": 0.06, "child_future_risk": 0.018 }, "geometry": { "type": "LineString", "coordinates": [ [ 77.59, 12.97 ], [ 77.59, 12.9725 ] ] } },
{ "type": "Feature", "properties": { "edge_id": "E04", "u": 104, "v": 105, "hour": 15, "distance_m": 250, "shade_frac": 0.85, "road_class": "residential", "pollution_proxy": 0.05, "rider_heat_dose": 0.09, "rider_pollution_dose": 0.03, "rider_risk": 0.072, "vendor_heat_dose": 0.27, "vendor_pollution_dose": 0.06, "vendor_risk": 0.207, "child_heat_dose": 0.225, "child_pollution_dose": 0.06, "child_risk": 0.1755, "future_shade_frac": 1.0, "future_pollution_proxy": 0.0, "intervention_notes": "cooling_stop;trees;", "rider_future_heat_dose": 0.0, "rider_future_pollution_dose": 0.0, "rider_future_risk": 0.0, "vendor_future_heat_dose": 0.0, "vendor_future_pollution_dose": 0.0, "vendor_future_risk": 0.0, "child_future_heat_dose": 0.0, "child_future_pollution_dose": 0.0, "child_future_risk": 0.0 }, "geometry": { "type": "LineString", "coordinates": [ [ 77.59, 12.9725 ], [ 77.5925, 12.9725 ] ] } },
{ "type": "Feature", "properties": { "edge_id": "E05", "u": 105, "v": 106, "hour": 15, "distance_m": 250, "shade_frac": 0.8, "road_class": "residential", "pollution_proxy": 0.05, "rider_heat_dose": 0.12, "rider_pollution_dose": 0.03, "rider_risk": 0.093, "vendor_heat_dose": 0.36, "vendor_pollution_dose": 0.06, "vendor_risk": 0.27, "child_heat_dose": 0.3, "child_pollution_dose": 0.06, "child_risk": 0.228, "future_shade_frac": 0.8, "future_pollution_proxy": 0.05, "intervention_notes": "", "rider_future_heat_dose": 0.12, "rider_future_pollution_dose": 0.03, "rider_future_risk": 0.093, "vendor_future_heat_dose": 0.36, "vendor_future_pollution_dose": 0.06, "vendor_future_risk": 0.27, "child_future_heat_dose": 0.3, "child_future_pollution_dose": 0.06, "child_future_risk": 0.228 }, "geometry": { "type": "LineString", "coordinates": [ [ 77.5925, 12.9725 ], [ 77.595, 12.9725 ] ] } },
{ "type": "Feature", "properties": { "edge_id": "E06", "u": 103, "v": 106, "hour": 15, "distance_m": 250, "shade_frac": 0.2, "road_class": "primary", "pollution_proxy": 0.45, "rider_heat_dose": 0.48, "rider_pollution_dose": 0.27, "rider_risk": 0.417, "vendor_heat_dose": 1.44, "vendor_pollution_dose": 0.54, "vendor_risk": 1.17, "child_heat_dose": 1.2, "child_pollution_dose": 0.54, "child_risk": 1.002, "future_shade_frac": 0.5, "future_pollution_proxy": 0.3, "intervention_notes": "green_corridor;", "rider_future_heat_dose": 0.3, "rider_future_pollution_dose": 0.18, "rider_future_risk": 0.264, "vendor_future_heat_dose": 0.9, "vendor_future_pollution_dose": 0.36, "vendor_future_risk": 0.738, "child_future_heat_dose": 0.75, "child_future_pollution_dose": 0.36, "child_future_risk": 0.633 }, "geometry": { "type": "LineString", "coordinates": [ [ 77.594, 12.97 ], [ 77.595, 12.9725 ] ] } },
{ "type": "Feature", "properties": { "edge_id": "E01", "u": 101, "v": 102, "hour": 17, "distance_m": 200, "shade_frac": 0.2, "road_class": "residential", "pollution_proxy": 0.1, "rider_heat_dose": 0.48, "rider_pollution_dose": 0.06, "rider_risk": 0.354, "vendor_heat_dose": 1.44, "vendor_pollution_dose": 0.12, "vendor_risk": 1.044, "child_heat_dose": 1.2, "child_pollution_dose": 0.12, "child_risk": 0.876, "future_shade_frac": 0.2, "future_pollution_proxy": 0.1, "intervention_notes": "", "rider_future_heat_dose": 0.48, "rider_future_pollution_dose": 0.06, "rider_future_risk": 0.354, "vendor_future_heat_dose": 1.44, "vendor_future_pollution_dose": 0.12, "vendor_future_risk": 1.044, "child_future_heat_dose": 1.2, "child_future_pollution_dose": 0.12, "child_future_risk": 0.876 }, "geometry": { "type": "LineString", "coordinates": [ [ 77.59, 12.97 ], [ 77.592, 12.97 ] ] } },
{ "type": "Feature", "properties": { "edge_id": "E02", "u": 102, "v": 103, "hour": 17, "distance_m": 200, "shade_frac": 0.3, "road_class": "primary", "pollution_proxy": 0.4, "rider_heat_dose": 0.42, "rider_pollution_dose": 0.24, "rider_risk": 0.366, "vendor_heat_dose": 1.26, "vendor_pollution_dose": 0.48, "vendor_risk": 1.026, "child_heat_dose": 1.05, "child_pollution_dose": 0.48, "child_risk": 0.879, "future_shade_frac": 0.6, "future_pollution_proxy": 0.25, "intervention_notes": "green_corridor;", "rider_future_heat_dose": 0.24, "rider_future_pollution_dose": 0.15, "rider_future_risk": 0.213, "vendor_future_heat_dose": 0.72, "vendor_future_pollution_dose": 0.3, "vendor_future_risk": 0.594, "child_future_heat_dose": 0.6, "child_future_pollution_dose": 0.3, "child_future_risk": 0.51 }, "geometry": { "type": "LineString", "coordinates": [ [ 77.592, 12.97 ], [ 77.594, 12.97 ] ] } },
{ "type": "Feature", "properties": { "edge_id": "E03", "u": 101, "v": 104, "hour": 17, "distance_m": 250, "shade_frac": 0.8, "road_class": "residential", "pollution_proxy": 0.05, "rider_heat_dose": 0.12, "rider_pollution_dose": 0.03, "rider_risk": 0.093, "vendor_heat_dose": 0.36, "vendor_pollution_dose": 0.06, "vendor_risk": 0.27, "child_heat_dose": 0.3, "child_pollution_dose": 0.06, "child_risk": 0.228, "future_shade_frac": 1.0, "future_pollution_proxy": 0.05, "intervention_notes": "cooling_stop;", "rider_future_heat_dose": 0.0, "rider_future_pollution_dose": 0.03, "rider_future_risk": 0.009, "vendor_future_heat_dose": 0.0, "vendor_future_pollution_dose": 0.06, "vendor_future_risk": 0.018, "child_future_heat_dose": 0.0, "child_future_pollution_dose": 0.06, "child_future_risk": 0.018 }, "geometry": { "type": "LineString", "coordinates": [ [ 77.59, 12.97 ], [ 77.59, 12.9725 ] ] } },
{ "type": "Feature", "properties": { "edge_id": "E04", "u": 104, "v": 105, "hour": 17, "distance_m": 250, "shade_frac": 0.85, "road_class": "residential", "pollution_proxy": 0.05, "rider_heat_dose": 0.09, "rider_pollution_dose": 0.03, "rider_risk": 0.072, "vendor_heat_dose": 0.27, "vendor_pollution_dose": 0.06, "vendor_risk": 0.207, "child_heat_dose": 0.225, "child_pollution_dose": 0.06, "child_risk": 0.1755, "future_shade_frac": 1.0, "future_pollution_proxy": 0.0, "intervention_notes": "cooling_stop;trees;", "rider_future_heat_dose": 0.0, "rider_future_pollution_dose": 0.0, "rider_future_risk": 0.0, "vendor_future_heat_dose": 0.0, "vendor_future_pollution_dose": 0.0, "vendor_future_risk": 0.0, "child_future_heat_dose": 0.0, "child_future_pollution_dose": 0.0, "child_future_risk": 0.0 }, "geometry": { "type": "LineString", "coordinates": [ [ 77.59, 12.9725 ], [ 77.5925, 12.9725 ] ] } },
{ "type": "Feature", "properties": { "edge_id": "E05", "u": 105, "v": 106, "hour": 17, "distance_m": 250, "shade_frac": 0.8, "road_class": "residential", "pollution_proxy": 0.05, "rider_heat_dose": 0.12, "rider_pollution_dose": 0.03, "rider_risk": 0.093, "vendor_heat_dose": 0.36, "vendor_pollution_dose": 0.06, "vendor_risk": 0.27, "child_heat_dose": 0.3, "child_pollution_dose": 0.06, "child_risk": 0.228, "future_shade_frac": 0.8, "future_pollution_proxy": 0.05, "intervention_notes": "", "rider_future_heat_dose": 0.12, "rider_future_pollution_dose": 0.03, "rider_future_risk": 0.093, "vendor_future_heat_dose": 0.36, "vendor_future_pollution_dose": 0.06, "vendor_future_risk": 0.27, "child_future_heat_dose": 0.3, "child_future_pollution_dose": 0.06, "child_future_risk": 0.228 }, "geometry": { "type": "LineString", "coordinates": [ [ 77.5925, 12.9725 ], [ 77.595, 12.9725 ] ] } },
{ "type": "Feature", "properties": { "edge_id": "E06", "u": 103, "v": 106, "hour": 17, "distance_m": 250, "shade_frac": 0.2, "road_class": "primary", "pollution_proxy": 0.45, "rider_heat_dose": 0.48, "rider_pollution_dose": 0.27, "rider_risk": 0.417, "vendor_heat_dose": 1.44, "vendor_pollution_dose": 0.54, "vendor_risk": 1.17, "child_heat_dose": 1.2, "child_pollution_dose": 0.54, "child_risk": 1.002, "future_shade_frac": 0.5, "future_pollution_proxy": 0.3, "intervention_notes": "green_corridor;", "rider_future_heat_dose": 0.3, "rider_future_pollution_dose": 0.18, "rider_future_risk": 0.264, "vendor_future_heat_dose": 0.9, "vendor_future_pollution_dose": 0.36, "vendor_future_risk": 0.738, "child_future_heat_dose": 0.75, "child_future_pollution_dose": 0.36, "child_future_risk": 0.633 }, "geometry": { "type": "LineString", "coordinates": [ [ 77.594, 12.97 ], [ 77.595, 12.9725 ] ] } }
]
}
