{
"type": "FeatureCollection",
"name": "candidate_stops",
"crs": { "type": "name", "properties": { "name": "urn:ogc:def:crs:OGC:1.3:CRS84" } },
"features": [
{ "type": "Feature", "properties": { "element": "node", "id": 7013166610, "addr:district": "Bhopal", "addr:full": "Plot No.131/14, Zone-2,Mp Nagar,Opposite Provident Fund Office,Near Pragati Petrol Pump", "addr:postcode": "462011", "addr:state": "Madhya Pradesh", "amenity": "hospital", "name": "Prakash Eye Care and Laser Centre", "source": "OpenGovernmentData", "healthcare": null, "barrier": null, "leisure": null, "bus": null, "operator": null, "public_transport": null, "name:etymology:wikidata": null, "addr:city": null, "addr:street": null, "phone": null, "building": null, "name:hi": null, "type": null }, "geometry": { "type": "Point", "coordinates": [ 77.4356157, 23.2288798 ] } },
{ "type": "Feature", "properties": { "element": "node", "id": 7013804557, "addr:district": "Bhopal", "addr:full": "115,Zonal-II,M.P Nagar,Behind Pragati Petrol Pump", "addr:postcode": "462011", "addr:state": "Madhya Pradesh", "amenity": "hospital", "name": "Citi Hospital", "source": "OpenGovernmentData", "healthcare": null, "barrier": null, "leisure": null, "bus": null, "operator": null, "public_transport": null, "name:etymology:wikidata": null, "addr:city": null, "addr:street": null, "phone": null, "building": null, "name:hi": null, "type": null }, "geometry": { "type": "Point", "coordinates": [ 77.4360924, 23.2304819 ] } },
{ "type": "Feature", "properties": { "element": "node", "id": 7013865527, "addr:district": "Bhopal", "addr:full": "Hig-2, Ankur Colony Shivaji Nagar", "addr:postcode": "462016", "addr:state": "Madhya Pradesh", "amenity": "hospital", "name": "Parul Hospital Pvt Ltd", "source": "OpenGovernmentData", "healthcare": null, "barrier": null, "leisure": null, "bus": null, "operator": null, "public_transport": null, "name:etymology:wikidata": null, "addr:city": null, "addr:street": null, "phone": null, "building": null, "name:hi": null, "type": null }, "geometry": { "type": "Point", "coordinates": [ 77.4320886, 23.2274392 ] } },
{ "type": "Feature", "properties": { "element": "node", "id": 7015548062, "addr:district": "Bhopal", "addr:full": "41, Zone- Ii M P Nagar", "addr:postcode": "462011", "addr:state": "Madhya Pradesh", "amenity": "hospital", "name": "Navodaya Hospital And Research Centre", "source": "OpenGovernmentData", "healthcare": null, "barrier": null, "leisure": null, "bus": null, "operator": null, "public_transport": null, "name:etymology:wikidata": null, "addr:city": null, "addr:street": null, "phone": null, "building": null, "name:hi": null, "type": null }, "geometry": { "type": "Point", "coordinates": [ 77.436824, 23.230265 ] } },
{ "type": "Feature", "properties": { "element": "node", "id": 7016168371, "addr:district": "Bhopal", "addr:full": "172, Zone 2, Near Sargam Talkies, Maharanapratap Nagar", "addr:postcode": "462011", "addr:state": "Madhya Pradesh", "amenity": "hospital", "name": "New Bhopal Hospital and Research Foundation", "source": "OpenGovernmentData", "healthcare": null, "barrier": null, "leisure": null, "bus": null, "operator": null, "public_transport": null, "name:etymology:wikidata": null, "addr:city": null, "addr:street": null, "phone": null, "building": null, "name:hi": null, "type": null }, "geometry": { "type": "Point", "coordinates": [ 77.4364391, 23.2283782 ] } },
{ "type": "Feature", "properties": { "element": "node", "id": 7016405057, "addr:district": "Bhopal", "addr:full": "Mig-215, Gautam Nagar, Govindpura", "addr:postcode": "462023", "addr:state": "Madhya Pradesh", "amenity": "hospital", "name": "Shivam Hospital, Bhopal", "source": "OpenGovernmentData", "healthcare": "hospital", "barrier": null, "leisure": null, "bus": null, "operator": null, "public_transport": null, "name:etymology:wikidata": null, "addr:city": null, "addr:street": null, "phone": null, "building": null, "name:hi": null, "type": null }, "geometry": { "type": "Point", "coordinates": [ 77.441023, 23.2353103 ] } },
{ "type": "Feature", "properties": { "element": "node", "id": 7016451736, "addr:district": "Bhopal", "addr:full": "109 Zone 2 Mp Nagar", "addr:postcode": "462011", "addr:state": "Madhya Pradesh", "amenity": "hospital", "name": "Sankalp Netralya Hospital", "source": "OpenGovernmentData", "healthcare": null, "barrier": null, "leisure": null, "bus": null, "operator": null, "public_transport": null, "name:etymology:wikidata": null, "addr:city": null, "addr:street": null, "phone": null, "building": null, "name:hi": null, "type": null }, "geometry": { "type": "Point", "coordinates": [ 77.4364857, 23.2302816 ] } },
{ "type": "Feature", "properties": { "element": "node", "id": 7016451737, "addr:district": "Bhopal", "addr:full": "B-66 Kasturba Nagar, Near Chetak Bridge", "addr:postcode": "462023", "addr:state": "Madhya Pradesh", "amenity": "hospital", "name": "Vatsalya Hospital, Bhopal", "source": "OpenGovernmentData", "healthcare": "hospital", "barrier": null, "leisure": null, "bus": null, "operator": null, "public_transport": null, "name:etymology:wikidata": null, "addr:city": null, "addr:street": null, "phone": null, "building": null, "name:hi": null, "type": null }, "geometry": { "type": "Point", "coordinates": [ 77.4400197, 23.2339407 ] } },
{ "type": "Feature", "properties": { "element": "node", "id": 7016451742, "addr:district": "Bhopal", "addr:full": "B-27, Kasturba Nagar , Near Chetak Bridge", "addr:postcode": "462023", "addr:state": "Madhya Pradesh", "amenity": "hospital", "name": "Lakecity Hospital, Bhopal", "source": "OpenGovernmentData", "healthcare": "hospital", "barrier": null, "leisure": null, "bus": null, "operator": null, "public_transport": null, "name:etymology:wikidata": null, "addr:city": null, "addr:street": null, "phone": null, "building": null, "name:hi": null, "type": null }, "geometry": { "type": "Point", "coordinates": [ 77.4405538, 23.2321079 ] } },
{ "type": "Feature", "properties": { "element": "node", "id": 7017074866, "addr:district": "Bhopal", "addr:full": "Kisan Bhawan Campus, Near R. B.I., Opposite Maida Mill", "addr:postcode": "462008", "addr:state": "Madhya Pradesh", "amenity": "hospital", "name": "Swami Vivekanand Regional Spine Centre", "source": "OpenGovernmentData", "healthcare": null, "barrier": null, "leisure": null, "bus": null, "operator": null, "public_transport": null, "name:etymology:wikidata": null, "addr:city": null, "addr:street": null, "phone": null, "building": null, "name:hi": null, "type": null }, "geometry": { "type": "Point", "coordinates": [ 77.4307877, 23.2405328 ] } },
{ "type": "Feature", "properties": { "element": "node", "id": 7017098522, "addr:district": "Bhopal", "addr:full": "Z-17, M P Nagar Zone 1, Infront Of Chittod Complex", "addr:postcode": "462001", "addr:state": "Madhya Pradesh", "amenity": "hospital", "name": "Miracles Children Hospital", "source": "OpenGovernmentData", "healthcare": null, "barrier": null, "leisure": null, "bus": null, "operator": null, "public_transport": null, "name:etymology:wikidata": null, "addr:city": null, "addr:street": null, "phone": null, "building": null, "name:hi": null, "type": null }, "geometry": { "type": "Point", "coordinates": [ 77.4343295, 23.2369443 ] } },
{ "type": "Feature", "properties": { "element": "node", "id": 7288631364, "addr:district": "Bhopal", "addr:full": "Chetak Bridge, Zone-I, Maharana Pratap Nagar, Near Jyoti Talkies, Bhopal", "addr:postcode": "462023", "addr:state": "Madhya Pradesh", "amenity": "hospital", "name": "Batra Hospital", "source": "OpenGovernmentData", "healthcare": null, "barrier": null, "leisure": null, "bus": null, "operator": null, "public_transport": null, "name:etymology:wikidata": null, "addr:city": null, "addr:street": null, "phone": null, "building": null, "name:hi": null, "type": null }, "geometry": { "type": "Point", "coordinates": [ 77.4347058, 23.2337463 ] } },
{ "type": "Feature", "properties": { "element": "node", "id": 7288631402, "addr:district": "Bhopal", "addr:full": "Manya Arcade ,Commercial Scheme Zone Waroad", "addr:postcode": "462011", "addr:state": "Madhya Pradesh", "amenity": "hospital", "name": "Indira IVF Bhopal", "source": "OpenGovernmentData", "healthcare": "hospital", "barrier": null, "leisure": null, "bus": null, "operator": null, "public_transport": null, "name:etymology:wikidata": null, "addr:city": null, "addr:street": null, "phone": null, "building": null, "name:hi": null, "type": null }, "geometry": { "type": "Point", "coordinates": [ 77.443582, 23.231072 ] } },
{ "type": "Feature", "properties": { "element": "node", "id": 7288631424, "addr:district": "Bhopal", "addr:full": "Db City, Arera Hill Road, Maharana Pratap Nagar, Bhopal", "addr:postcode": "462011", "addr:state": "Madhya Pradesh", "amenity": "hospital", "name": "Himalaya Optical Bhopal", "source": "OpenGovernmentData", "healthcare": null, "barrier": null, "leisure": null, "bus": null, "operator": null, "public_transport": null, "name:etymology:wikidata": null, "addr:city": null, "addr:street": null, "phone": null, "building": null, "name:hi": null, "type": null }, "geometry": { "type": "Point", "coordinates": [ 77.429734, 23.232979 ] } },
{ "type": "Feature", "properties": { "element": "relation", "id": 6908897, "addr:district": null, "addr:full": null, "addr:postcode": null, "addr:state": null, "amenity": null, "name": "Chinar Park", "source": null, "healthcare": null, "barrier": null, "leisure": "park", "bus": null, "operator": null, "public_transport": null, "name:etymology:wikidata": null, "addr:city": null, "addr:street": null, "phone": null, "building": null, "name:hi": null, "type": "multipolygon" }, "geometry": { "type": "Polygon", "coordinates": [ [ [ 77.4188369, 23.2316232 ], [ 77.4191728, 23.2318727 ], [ 77.4201276, 23.2320029 ], [ 77.4208803, 23.2321075 ], [ 77.4215052, 23.2321481 ], [ 77.4219256, 23.2321374 ], [ 77.4229756, 23.2320712 ], [ 77.4238305, 23.2320477 ], [ 77.4241836, 23.2321032 ], [ 77.4252662, 23.232306 ], [ 77.4255193, 23.2323917 ], [ 77.4258026, 23.2324877 ], [ 77.4259652, 23.2322465 ], [ 77.4260976, 23.2321547 ], [ 77.4264205, 23.2319989 ], [ 77.4268259, 23.2318665 ], [ 77.4272185, 23.2318153 ], [ 77.4275042, 23.2317737 ], [ 77.4277179, 23.2317 ], [ 77.4274527, 23.2311998 ], [ 77.4274601, 23.2311963 ], [ 77.4273997, 23.2310404 ], [ 77.4272556, 23.2309678 ], [ 77.4270582, 23.2309614 ], [ 77.4258037, 23.231034 ], [ 77.4245818, 23.2311173 ], [ 77.4233436, 23.2311642 ], [ 77.4222425, 23.2312283 ], [ 77.4192946, 23.2313948 ], [ 77.4190809, 23.2314247 ], [ 77.418909, 23.2315122 ], [ 77.4188369, 23.2316232 ] ] ] } },
{ "type": "Feature", "properties": { "element": "way", "id": 360524175, "addr:district": null, "addr:full": null, "addr:postcode": null, "addr:state": null, "amenity": null, "name": null, "source": null, "healthcare": null, "barrier": "wall", "leisure": "park", "bus": null, "operator": null, "public_transport": null, "name:etymology:wikidata": null, "addr:city": null, "addr:street": null, "phone": null, "building": null, "name:hi": null, "type": null }, "geometry": { "type": "Polygon", "coordinates": [ [ [ 77.4269142, 23.2348801 ], [ 77.4268945, 23.234711 ], [ 77.4268945, 23.2345765 ], [ 77.4268945, 23.2342763 ], [ 77.4268617, 23.2336605 ], [ 77.4268157, 23.2334341 ], [ 77.426612, 23.2331503 ], [ 77.4264168, 23.2329093 ], [ 77.4262999, 23.2327971 ], [ 77.4258268, 23.2324922 ], [ 77.4260732, 23.2321963 ], [ 77.4263656, 23.2320514 ], [ 77.4268452, 23.2318884 ], [ 77.4272986, 23.231828 ], [ 77.4277158, 23.2317586 ], [ 77.4277618, 23.2317707 ], [ 77.428092, 23.2325798 ], [ 77.4281068, 23.232631 ], [ 77.4281692, 23.233102 ], [ 77.4281561, 23.2336454 ], [ 77.4280739, 23.2342944 ], [ 77.4279589, 23.2346416 ], [ 77.4278078, 23.2348318 ], [ 77.4276041, 23.2348952 ], [ 77.4270226, 23.2349163 ], [ 77.4269142, 23.2348801 ] ] ] } },
{ "type": "Feature", "properties": { "element": "way", "id": 360551278, "addr:district": null, "addr:full": null, "addr:postcode": null, "addr:state": null, "amenity": "bus_station", "name": "ISBT", "source": null, "healthcare": null, "barrier": null, "leisure": null, "bus": "yes", "operator": "ISBT", "public_transport": "station", "name:etymology:wikidata": null, "addr:city": null, "addr:street": null, "phone": null, "building": null, "name:hi": null, "type": null }, "geometry": { "type": "Polygon", "coordinates": [ [ [ 77.4421255, 23.2299759 ], [ 77.4431351, 23.22998 ], [ 77.4431357, 23.2303234 ], [ 77.4435251, 23.2303093 ], [ 77.4443908, 23.2302778 ], [ 77.4443817, 23.2301323 ], [ 77.4442986, 23.2288051 ], [ 77.4441249, 23.2287334 ], [ 77.4434867, 23.2287563 ], [ 77.443203, 23.2287139 ], [ 77.4431286, 23.2285184 ], [ 77.4431321, 23.2282056 ], [ 77.443008, 23.2280069 ], [ 77.4427244, 23.2279287 ], [ 77.4424266, 23.2280232 ], [ 77.4421181, 23.2281991 ], [ 77.4421255, 23.2299759 ] ] ] } },
{ "type": "Feature", "properties": { "element": "way", "id": 360551290, "addr:district": null, "addr:full": null, "addr:postcode": null, "addr:state": null, "amenity": null, "name": null, "source": null, "healthcare": null, "barrier": null, "leisure": "park", "bus": null, "operator": null, "public_transport": null, "name:etymology:wikidata": null, "addr:city": null, "addr:street": null, "phone": null, "building": null, "name:hi": null, "type": null }, "geometry": { "type": "Polygon", "coordinates": [ [ [ 77.4332832, 23.2353739 ], [ 77.4332708, 23.2351882 ], [ 77.4333098, 23.2349846 ], [ 77.4334019, 23.2348347 ], [ 77.4335083, 23.234662 ], [ 77.4337264, 23.2346995 ], [ 77.4339267, 23.2347402 ], [ 77.4339745, 23.234807 ], [ 77.4337725, 23.2354798 ], [ 77.433336, 23.2353853 ], [ 77.4332832, 23.2353739 ] ] ] } },
{ "type": "Feature", "properties": { "element": "way", "id": 360551292, "addr:district": null, "addr:full": null, "addr:postcode": null, "addr:state": null, "amenity": "school", "name": "Jawahar Lal Nehru School", "source": null, "healthcare": null, "barrier": "wall", "leisure": null, "bus": null, "operator": null, "public_transport": null, "name:etymology:wikidata": "Q1047", "addr:city": null, "addr:street": null, "phone": null, "building": null, "name:hi": null, "type": null }, "geometry": { "type": "Polygon", "coordinates": [ [ [ 77.4450515, 23.2239855 ], [ 77.4450821, 23.2242056 ], [ 77.4452135, 23.2251916 ], [ 77.4452359, 23.2253409 ], [ 77.4453103, 23.2260968 ], [ 77.4438, 23.2259946 ], [ 77.4437905, 23.2254995 ], [ 77.4437832, 23.225117 ], [ 77.4437705, 23.2244487 ], [ 77.4437645, 23.2241321 ], [ 77.4438035, 23.2239366 ], [ 77.4450515, 23.2239855 ] ] ] } },
{ "type": "Feature", "properties": { "element": "way", "id": 445339401, "addr:district": null, "addr:full": null, "addr:postcode": "462016", "addr:state": null, "amenity": "school", "name": "Ankur Middle School", "source": null, "healthcare": null, "barrier": null, "leisure": null, "bus": null, "operator": null, "public_transport": null, "name:etymology:wikidata": null, "addr:city": "Bhopal", "addr:street": "6 No. Stop", "phone": "0755 428 2498", "building": null, "name:hi": null, "type": null }, "geometry": { "type": "Polygon", "coordinates": [ [ [ 77.4291064, 23.2269499 ], [ 77.429202, 23.2260984 ], [ 77.4296326, 23.2261007 ], [ 77.4301111, 23.2261308 ], [ 77.4306474, 23.2263182 ], [ 77.4310251, 23.2266908 ], [ 77.4311158, 23.2268204 ], [ 77.4309118, 23.2268666 ], [ 77.4308111, 23.2269083 ], [ 77.4307305, 23.2269916 ], [ 77.4305945, 23.2270957 ], [ 77.4291064, 23.2269499 ] ] ] } },
{ "type": "Feature", "properties": { "element": "way", "id": 537638802, "addr:district": null, "addr:full": null, "addr:postcode": null, "addr:state": null, "amenity": "bus_station", "name": "Inter State Bus Terminal", "source": null, "healthcare": null, "barrier": null, "leisure": null, "bus": "yes", "operator": null, "public_transport": "station", "name:etymology:wikidata": null, "addr:city": null, "addr:street": null, "phone": null, "building": "yes", "name:hi": null, "type": null }, "geometry": { "type": "Polygon", "coordinates": [ [ [ 77.4439374, 23.2288366 ], [ 77.443409, 23.2288588 ], [ 77.4434278, 23.2292704 ], [ 77.4439535, 23.2292556 ], [ 77.4439374, 23.2288366 ] ] ] } },
{ "type": "Feature", "properties": { "element": "way", "id": 1303581389, "addr:district": null, "addr:full": null, "addr:postcode": null, "addr:state": null, "amenity": null, "name": "Kasturba Park", "source": null, "healthcare": null, "barrier": null, "leisure": "park", "bus": null, "operator": null, "public_transport": null, "name:etymology:wikidata": null, "addr:city": null, "addr:street": null, "phone": null, "building": null, "name:hi": "कस्तूरबा पार्क", "type": null }, "geometry": { "type": "Polygon", "coordinates": [ [ [ 77.4382152, 23.2321341 ], [ 77.4382849, 23.2318777 ], [ 77.438694, 23.2318833 ], [ 77.4386229, 23.2322407 ], [ 77.4382152, 23.2321341 ] ] ] } }
]
}
