{
"type": "FeatureCollection",
"name": "intervention_candidates",
"crs": { "type": "name", "properties": { "name": "urn:ogc:def:crs:OGC:1.3:CRS84" } },
"features": [
{ "type": "Feature", "properties": { "id": 7013166610, "stop_type": "hospital", "name": "Prakash Eye Care and Laser Centre", "latitude": 23.2288798, "longitude": 77.4356157, "intervention": "Cooling Stop" }, "geometry": { "type": "Point", "coordinates": [ 77.4356157, 23.2288798 ] } },
{ "type": "Feature", "properties": { "id": 7013804557, "stop_type": "hospital", "name": "Citi Hospital", "latitude": 23.2304819, "longitude": 77.4360924, "intervention": "Cooling Stop" }, "geometry": { "type": "Point", "coordinates": [ 77.4360924, 23.2304819 ] } },
{ "type": "Feature", "properties": { "id": 7013865527, "stop_type": "hospital", "name": "Parul Hospital Pvt Ltd", "latitude": 23.2274392, "longitude": 77.4320886, "intervention": "Cooling Stop" }, "geometry": { "type": "Point", "coordinates": [ 77.4320886, 23.2274392 ] } },
{ "type": "Feature", "properties": { "id": 7015548062, "stop_type": "hospital", "name": "Navodaya Hospital And Research Centre", "latitude": 23.230265, "longitude": 77.436824, "intervention": "Cooling Stop" }, "geometry": { "type": "Point", "coordinates": [ 77.436824, 23.230265 ] } },
{ "type": "Feature", "properties": { "id": 7016168371, "stop_type": "hospital", "name": "New Bhopal Hospital and Research Foundation", "latitude": 23.2283782, "longitude": 77.4364391, "intervention": "Cooling Stop" }, "geometry": { "type": "Point", "coordinates": [ 77.4364391, 23.2283782 ] } },
{ "type": "Feature", "properties": { "id": 7016405057, "stop_type": "hospital", "name": "Shivam Hospital, Bhopal", "latitude": 23.2353103, "longitude": 77.441023, "intervention": "Cooling Stop" }, "geometry": { "type": "Point", "coordinates": [ 77.441023, 23.2353103 ] } },
{ "type": "Feature", "properties": { "id": 7016451736, "stop_type": "hospital", "name": "Sankalp Netralya Hospital", "latitude": 23.2302816, "longitude": 77.4364857, "intervention": "Cooling Stop" }, "geometry": { "type": "Point", "coordinates": [ 77.4364857, 23.2302816 ] } },
{ "type": "Feature", "properties": { "id": 7016451737, "stop_type": "hospital", "name": "Vatsalya Hospital, Bhopal", "latitude": 23.2339407, "longitude": 77.4400197, "intervention": "Cooling Stop" }, "geometry": { "type": "Point", "coordinates": [ 77.4400197, 23.2339407 ] } },
{ "type": "Feature", "properties": { "id": 7016451742, "stop_type": "hospital", "name": "Lakecity Hospital, Bhopal", "latitude": 23.2321079, "longitude": 77.4405538, "intervention": "Cooling Stop" }, "geometry": { "type": "Point", "coordinates": [ 77.4405538, 23.2321079 ] } },
{ "type": "Feature", "properties": { "id": 7017074866, "stop_type": "hospital", "name": "Swami Vivekanand Regional Spine Centre", "latitude": 23.2405328, "longitude": 77.4307877, "intervention": "Cooling Stop" }, "geometry": { "type": "Point", "coordinates": [ 77.4307877, 23.2405328 ] } },
{ "type": "Feature", "properties": { "id": 7017098522, "stop_type": "hospital", "name": "Miracles Children Hospital", "latitude": 23.2369443, "longitude": 77.4343295, "intervention": "Cooling Stop" }, "geometry": { "type": "Point", "coordinates": [ 77.4343295, 23.2369443 ] } },
{ "type": "Feature", "properties": { "id": 7288631364, "stop_type": "hospital", "name": "Batra Hospital", "latitude": 23.2337463, "longitude": 77.4347058, "intervention": "Cooling Stop" }, "geometry": { "type": "Point", "coordinates": [ 77.4347058, 23.2337463 ] } },
{ "type": "Feature", "properties": { "id": 7288631402, "stop_type": "hospital", "name": "Indira IVF Bhopal", "latitude": 23.231072, "longitude": 77.443582, "intervention": "Cooling Stop" }, "geometry": { "type": "Point", "coordinates": [ 77.443582, 23.231072 ] } },
{ "type": "Feature", "properties": { "id": 7288631424, "stop_type": "hospital", "name": "Himalaya Optical Bhopal", "latitude": 23.232979, "longitude": 77.429734, "intervention": "Cooling Stop" }, "geometry": { "type": "Point", "coordinates": [ 77.429734, 23.232979 ] } },
{ "type": "Feature", "properties": { "id": 6908897, "stop_type": "park", "name": "Chinar Park", "latitude": 23.231631933884731, "longitude": 77.423679539317391, "intervention": "Cooling Stop" }, "geometry": { "type": "Point", "coordinates": [ 77.423679539317391, 23.231631933884731 ] } },
{ "type": "Feature", "properties": { "id": 360524175, "stop_type": "park", "name": null, "latitude": 23.233205674446339, "longitude": 77.427288973392947, "intervention": "Cooling Stop" }, "geometry": { "type": "Point", "coordinates": [ 77.427288973392947, 23.233205674446339 ] } },
{ "type": "Feature", "properties": { "id": 360551278, "stop_type": "bus_station", "name": "ISBT", "latitude": 23.229260287655539, "longitude": 77.443170523166003, "intervention": "Cooling Stop" }, "geometry": { "type": "Point", "coordinates": [ 77.443170523166003, 23.229260287655539 ] } },
{ "type": "Feature", "properties": { "id": 360551290, "stop_type": "park", "name": null, "latitude": 23.23506539199516, "longitude": 77.433610743129719, "intervention": "Cooling Stop" }, "geometry": { "type": "Point", "coordinates": [ 77.433610743129719, 23.23506539199516 ] } },
{ "type": "Feature", "properties": { "id": 360551292, "stop_type": "school", "name": "Jawahar Lal Nehru School", "latitude": 23.225032154531998, "longitude": 77.444490299871674, "intervention": "Cooling Stop" }, "geometry": { "type": "Point", "coordinates": [ 77.444490299871674, 23.225032154531998 ] } },
{ "type": "Feature", "properties": { "id": 445339401, "stop_type": "school", "name": "Ankur Middle School", "latitude": 23.226604132962798, "longitude": 77.429993545359338, "intervention": "Cooling Stop" }, "geometry": { "type": "Point", "coordinates": [ 77.429993545359338, 23.226604132962798 ] } },
{ "type": "Feature", "properties": { "id": 537638802, "stop_type": "bus_station", "name": "Inter State Bus Terminal", "latitude": 23.229055125502288, "longitude": 77.443682688145145, "intervention": "Cooling Stop" }, "geometry": { "type": "Point", "coordinates": [ 77.443682688145145, 23.229055125502288 ] } },
{ "type": "Feature", "properties": { "id": 1303581389, "stop_type": "park", "name": "Kasturba Park", "latitude": 23.232036765923052, "longitude": 77.438464825662024, "intervention": "Cooling Stop" }, "geometry": { "type": "Point", "coordinates": [ 77.438464825662024, 23.232036765923052 ] } }
]
}
